{
  "type": "FeatureCollection",
  "features": [
    {
      "type": "Feature",
      "properties": {
        "norad_id": 40894,
        "name": "GAOFEN-9 01",
        "group": "resource",
        "lat": -34.77512056747487,
        "lon": 22.514436781788422,
        "alt_km": 630.6365916052036,
        "timestamp": "2025-12-03T19:33:06.636810+00:00",
        "meta_object_name": "GAOFEN-9 01",
        "meta_object_id": "2015-047A",
        "meta_epoch": "2025-12-03T13:13:47.421984",
        "meta_mean_motion": 14.82384209,
        "meta_eccentricity": 0.0028928,
        "meta_inclination": 97.6555,
        "meta_ra_of_asc_node": 16.9033,
        "meta_arg_of_pericenter": 63.2387,
        "meta_mean_anomaly": 297.1782,
        "meta_ephemeris_type": 0,
        "meta_classification_type": "U",
        "meta_norad_cat_id": 40894,
        "meta_element_set_no": 999,
        "meta_rev_at_epoch": 55120,
        "meta_bstar": 0.00022968,
        "meta_mean_motion_dot": 1.801e-05,
        "meta_mean_motion_ddot": 0,
        "tle_line1": "1 40894U 15047A   25337.55124331  .00001801  00000+0  22968-3 0  9995",
        "tle_line2": "2 40894  97.6555  16.9033 0028928  63.2387 297.1782 14.82384209551204"
      },
      "geometry": {
        "type": "Point",
        "coordinates": [
          22.514436781788422,
          -34.77512056747487
        ]
      }
    },
    {
      "type": "Feature",
      "properties": {
        "norad_id": 41026,
        "name": "YAOGAN-28",
        "group": "resource",
        "lat": -34.76537658615685,
        "lon": -69.23015421394453,
        "alt_km": 495.6236989603831,
        "timestamp": "2025-12-03T19:33:06.636820+00:00",
        "meta_object_name": "YAOGAN-28",
        "meta_object_id": "2015-064A",
        "meta_epoch": "2025-12-03T12:18:33.528384",
        "meta_mean_motion": 15.24096026,
        "meta_eccentricity": 0.0011961,
        "meta_inclination": 97.2798,
        "meta_ra_of_asc_node": 115.5675,
        "meta_arg_of_pericenter": 156.5665,
        "meta_mean_anomaly": 203.612,
        "meta_ephemeris_type": 0,
        "meta_classification_type": "U",
        "meta_norad_cat_id": 41026,
        "meta_element_set_no": 999,
        "meta_rev_at_epoch": 56084,
        "meta_bstar": 0.00047578,
        "meta_mean_motion_dot": 0.00011518,
        "meta_mean_motion_ddot": 0,
        "tle_line1": "1 41026U 15064A   25337.51288806  .00011518  00000+0  47578-3 0  9996",
        "tle_line2": "2 41026  97.2798 115.5675 0011961 156.5665 203.6120 15.24096026560841"
      },
      "geometry": {
        "type": "Point",
        "coordinates": [
          -69.23015421394453,
          -34.76537658615685
        ]
      }
    },
    {
      "type": "Feature",
      "properties": {
        "norad_id": 41038,
        "name": "YAOGAN-29",
        "group": "resource",
        "lat": -17.7052107739842,
        "lon": 178.3766872897197,
        "alt_km": 625.8135557651358,
        "timestamp": "2025-12-03T19:33:06.636830+00:00",
        "meta_object_name": "YAOGAN-29",
        "meta_object_id": "2015-069A",
        "meta_epoch": "2025-12-03T12:11:05.395776",
        "meta_mean_motion": 14.82865956,
        "meta_eccentricity": 7.53e-05,
        "meta_inclination": 98.0228,
        "meta_ra_of_asc_node": 0.6494,
        "meta_arg_of_pericenter": 7.0227,
        "meta_mean_anomaly": 353.0996,
        "meta_ephemeris_type": 0,
        "meta_classification_type": "U",
        "meta_norad_cat_id": 41038,
        "meta_element_set_no": 999,
        "meta_rev_at_epoch": 54162,
        "meta_bstar": 0.00010437,
        "meta_mean_motion_dot": 7.91e-06,
        "meta_mean_motion_ddot": 0,
        "tle_line1": "1 41038U 15069A   25337.50770134  .00000791  00000+0  10437-3 0  9998",
        "tle_line2": "2 41038  98.0228   0.6494 0000753   7.0227 353.0996 14.82865956541620"
      },
      "geometry": {
        "type": "Point",
        "coordinates": [
          178.3766872897197,
          -17.7052107739842
        ]
      }
    },
    {
      "type": "Feature",
      "properties": {
        "norad_id": 41167,
        "name": "KENT RIDGE 1",
        "group": "resource",
        "lat": 12.619443011840774,
        "lon": 40.514890906881824,
        "alt_km": 499.48883531624415,
        "timestamp": "2025-12-03T19:33:06.636840+00:00",
        "meta_object_name": "KENT RIDGE 1",
        "meta_object_id": "2015-077B",
        "meta_epoch": "2025-12-03T04:51:29.321280",
        "meta_mean_motion": 15.21515134,
        "meta_eccentricity": 0.00086777,
        "meta_inclination": 14.9806,
        "meta_ra_of_asc_node": 281.9029,
        "meta_arg_of_pericenter": 355.7263,
        "meta_mean_anomaly": 4.2984,
        "meta_ephemeris_type": 0,
        "meta_classification_type": "U",
        "meta_norad_cat_id": 41167,
        "meta_element_set_no": 999,
        "meta_rev_at_epoch": 55118,
        "meta_bstar": 0.0002495538,
        "meta_mean_motion_dot": 6.551e-05,
        "meta_mean_motion_ddot": 0,
        "tle_line1": "1 41167U 15077B   25337.20242270  .00006551  00000+0  24955-3 0  9992",
        "tle_line2": "2 41167  14.9806 281.9029 0008677 355.7263   4.2984 15.21515134551184"
      },
      "geometry": {
        "type": "Point",
        "coordinates": [
          40.514890906881824,
          12.619443011840774
        ]
      }
    },
    {
      "type": "Feature",
      "properties": {
        "norad_id": 41194,
        "name": "GAOFEN-4",
        "group": "resource",
        "lat": 0.0879062761019234,
        "lon": 111.79676474413607,
        "alt_km": 35781.15821210307,
        "timestamp": "2025-12-03T19:33:06.636854+00:00",
        "meta_object_name": "GAOFEN-4",
        "meta_object_id": "2015-083A",
        "meta_epoch": "2025-12-03T10:50:00.015648",
        "meta_mean_motion": 1.00273574,
        "meta_eccentricity": 0.0003742,
        "meta_inclination": 0.1448,
        "meta_ra_of_asc_node": 80.6995,
        "meta_arg_of_pericenter": 104.3544,
        "meta_mean_anomaly": 155.67,
        "meta_ephemeris_type": 0,
        "meta_classification_type": "U",
        "meta_norad_cat_id": 41194,
        "meta_element_set_no": 999,
        "meta_rev_at_epoch": 3656,
        "meta_bstar": 0,
        "meta_mean_motion_dot": -3.17e-06,
        "meta_mean_motion_ddot": 0,
        "tle_line1": "1 41194U 15083A   25337.45138907 -.00000317  00000+0  00000+0 0  9993",
        "tle_line2": "2 41194   0.1448  80.6995 0003742 104.3544 155.6700  1.00273574 36565"
      },
      "geometry": {
        "type": "Point",
        "coordinates": [
          111.79676474413607,
          0.0879062761019234
        ]
      }
    },
    {
      "type": "Feature",
      "properties": {
        "norad_id": 41240,
        "name": "JASON-3",
        "group": "resource",
        "lat": -14.831202559702437,
        "lon": 169.8268905261525,
        "alt_km": 1313.0563037896154,
        "timestamp": "2025-12-03T19:33:06.636865+00:00",
        "meta_object_name": "JASON-3",
        "meta_object_id": "2016-002A",
        "meta_epoch": "2025-12-03T12:10:47.119584",
        "meta_mean_motion": 12.87626006,
        "meta_eccentricity": 0.0007141,
        "meta_inclination": 66.0392,
        "meta_ra_of_asc_node": 177.2344,
        "meta_arg_of_pericenter": 270.3023,
        "meta_mean_anomaly": 89.7177,
        "meta_ephemeris_type": 0,
        "meta_classification_type": "U",
        "meta_norad_cat_id": 41240,
        "meta_element_set_no": 999,
        "meta_rev_at_epoch": 46205,
        "meta_bstar": 0.00017506,
        "meta_mean_motion_dot": -1.8e-07,
        "meta_mean_motion_ddot": 0,
        "tle_line1": "1 41240U 16002A   25337.50748981 -.00000018  00000+0  17506-3 0  9993",
        "tle_line2": "2 41240  66.0392 177.2344 0007141 270.3023  89.7177 12.87626006462051"
      },
      "geometry": {
        "type": "Point",
        "coordinates": [
          169.8268905261525,
          -14.831202559702437
        ]
      }
    },
    {
      "type": "Feature",
      "properties": {
        "norad_id": 41335,
        "name": "SENTINEL-3A",
        "group": "resource",
        "lat": -74.98003852166099,
        "lon": -171.4788289797115,
        "alt_km": 810.641087616692,
        "timestamp": "2025-12-03T19:33:06.636876+00:00",
        "meta_object_name": "SENTINEL-3A",
        "meta_object_id": "2016-011A",
        "meta_epoch": "2025-12-03T11:36:55.831392",
        "meta_mean_motion": 14.26740773,
        "meta_eccentricity": 9.94e-05,
        "meta_inclination": 98.622,
        "meta_ra_of_asc_node": 42.6297,
        "meta_arg_of_pericenter": 91.2608,
        "meta_mean_anomaly": 268.8686,
        "meta_ephemeris_type": 0,
        "meta_classification_type": "U",
        "meta_norad_cat_id": 41335,
        "meta_element_set_no": 999,
        "meta_rev_at_epoch": 51015,
        "meta_bstar": 0.00011753,
        "meta_mean_motion_dot": 2.41e-06,
        "meta_mean_motion_ddot": 0,
        "tle_line1": "1 41335U 16011A   25337.48397953  .00000241  00000+0  11753-3 0  9999",
        "tle_line2": "2 41335  98.6220  42.6297 0000994  91.2608 268.8686 14.26740773510150"
      },
      "geometry": {
        "type": "Point",
        "coordinates": [
          -171.4788289797115,
          -74.98003852166099
        ]
      }
    }
  ]
}